STARLINK-1977_new
1 17575C 21009AD  21326.09096371 -.00015221  00000-0 -10197-2 0  3266
2 17575  53.0541 243.3280 0002008  69.7399   8.6439 15.06418284    13
STARLINK-1977_old
1 27575C 21009AD  21325.16407166  .00008103  00000-0  54290-3 0  3252
2 27575  53.0546 247.4886 0002013  68.2913  20.7334 15.06392742    16
